[
    {
        "Altitude(m)": 575666.9093228119,
        "Argument of Periapsis(deg)": -0.03013754771062987,
        "Eccentricity": 0.0,
        "Inclination(deg)": 97.0,
        "Latitude(deg)": 71.1141990831738,
        "Longitude(deg)": -124.04989344273378,
        "Mean Anomaly(deg)": 72.36379102558332,
        "RAAN(deg)": 0.007929404824681026,
        "Satellite Name": "Starlink Shell 3 1588",
        "Satellite Number": 1588,
        "Semi-Major Axis(m)": 6938478.169268562,
        "Time(s)": 760
    },
    {
        "Altitude(m)": 575754.1184951338,
        "Argument of Periapsis(deg)": -0.030534094391032898,
        "Eccentricity": 0.0,
        "Inclination(deg)": 97.0,
        "Latitude(deg)": 71.69054729786818,
        "Longitude(deg)": -124.83437030020431,
        "Mean Anomaly(deg)": 72.98926722328837,
        "RAAN(deg)": 0.008033739098689987,
        "Satellite Name": "Starlink Shell 3 1588",
        "Satellite Number": 1588,
        "Semi-Major Axis(m)": 6938478.169268562,
        "Time(s)": 770
    },
    {
        "Altitude(m)": 575838.6360068403,
        "Argument of Periapsis(deg)": -0.030930641071435925,
        "Eccentricity": 0.0,
        "Inclination(deg)": 97.0,
        "Latitude(deg)": 72.26380370856486,
        "Longitude(deg)": -125.66524059485754,
        "Mean Anomaly(deg)": 73.6147434209934,
        "RAAN(deg)": 0.008138073372698949,
        "Satellite Name": "Starlink Shell 3 1588",
        "Satellite Number": 1588,
        "Semi-Major Axis(m)": 6938478.169268562,
        "Time(s)": 780
    },
    {
        "Altitude(m)": 575920.4137452914,
        "Argument of Periapsis(deg)": -0.031327187751838945,
        "Eccentricity": 0.0,
        "Inclination(deg)": 97.0,
        "Latitude(deg)": 72.83366427451128,
        "Longitude(deg)": -126.54686790819642,
        "Mean Anomaly(deg)": 74.24021961869845,
        "RAAN(deg)": 0.008242407646707908,
        "Satellite Name": "Starlink Shell 3 1588",
        "Satellite Number": 1588,
        "Semi-Major Axis(m)": 6938478.169268562,
        "Time(s)": 790
    },
    {
        "Altitude(m)": 575999.4051993741,
        "Argument of Periapsis(deg)": -0.031723734432241975,
        "Eccentricity": 0.0,
        "Inclination(deg)": 97.0,
        "Latitude(deg)": 73.39978499164945,
        "Longitude(deg)": -127.48413422343918,
        "Mean Anomaly(deg)": 74.86569581640349,
        "RAAN(deg)": 0.00834674192071687,
        "Satellite Name": "Starlink Shell 3 1588",
        "Satellite Number": 1588,
        "Semi-Major Axis(m)": 6938478.169268562,
        "Time(s)": 800
    },
    {
        "Altitude(m)": 576075.565481521,
        "Argument of Periapsis(deg)": -0.032120281112645,
        "Eccentricity": 0.0,
        "Inclination(deg)": 97.0,
        "Latitude(deg)": 73.9617755576528,
        "Longitude(deg)": -128.48250917939222,
        "Mean Anomaly(deg)": 75.49117201410854,
        "RAAN(deg)": 0.008451076194725831,
        "Satellite Name": "Starlink Shell 3 1588",
        "Satellite Number": 1588,
        "Semi-Major Axis(m)": 6938478.169268562,
        "Time(s)": 810
    },
    {
        "Altitude(m)": 576148.8513489802,
        "Argument of Periapsis(deg)": -0.03251682779304802,
        "Eccentricity": 0.0,
        "Inclination(deg)": 97.0,
        "Latitude(deg)": 74.51919189964677,
        "Longitude(deg)": -129.54812843179883,
        "Mean Anomaly(deg)": 76.11664821181358,
        "RAAN(deg)": 0.00855541046873479,
        "Satellite Name": "Starlink Shell 3 1588",
        "Satellite Number": 1588,
        "Semi-Major Axis(m)": 6938478.169268562,
        "Time(s)": 820
    },
    {
        "Altitude(m)": 576219.2212242407,
        "Argument of Periapsis(deg)": -0.032913374473451044,
        "Eccentricity": 0.0,
        "Inclination(deg)": 97.0,
        "Latitude(deg)": 75.07152735097756,
        "Longitude(deg)": -130.68788320000215,
        "Mean Anomaly(deg)": 76.74212440951864,
        "RAAN(deg)": 0.008659744742743752,
        "Satellite Name": "Starlink Shell 3 1588",
        "Satellite Number": 1588,
        "Semi-Major Axis(m)": 6938478.169268562,
        "Time(s)": 830
    },
    {
        "Altitude(m)": 576286.6352146833,
        "Argument of Periapsis(deg)": -0.03330992115385407,
        "Eccentricity": 0.0,
        "Inclination(deg)": 97.0,
        "Latitude(deg)": 75.61820222803375,
        "Longitude(deg)": -131.90951815236215,
        "Mean Anomaly(deg)": 77.36760060722366,
        "RAAN(deg)": 0.008764079016752713,
        "Satellite Name": "Starlink Shell 3 1588",
        "Satellite Number": 1588,
        "Semi-Major Axis(m)": 6938478.169268562,
        "Time(s)": 840
    },
    {
        "Altitude(m)": 576351.0551314197,
        "Argument of Periapsis(deg)": -0.0337064678342571,
        "Eccentricity": 0.0,
        "Inclination(deg)": 97.0,
        "Latitude(deg)": 76.15855152156958,
        "Longitude(deg)": -133.22173863293474,
        "Mean Anomaly(deg)": 77.9930768049287,
        "RAAN(deg)": 0.008868413290761674,
        "Satellite Name": "Starlink Shell 3 1588",
        "Satellite Number": 1588,
        "Semi-Major Axis(m)": 6938478.169268562,
        "Time(s)": 850
    },
    {
        "Altitude(m)": 576412.4445073082,
        "Argument of Periapsis(deg)": -0.03410301451466012,
        "Eccentricity": 0.0,
        "Inclination(deg)": 97.0,
        "Latitude(deg)": 76.6918103829799,
        "Longitude(deg)": -134.63432724452204,
        "Mean Anomaly(deg)": 78.61855300263375,
        "RAAN(deg)": 0.008972747564770634,
        "Satellite Name": "Starlink Shell 3 1588",
        "Satellite Number": 1588,
        "Semi-Major Axis(m)": 6938478.169268562,
        "Time(s)": 860
    },
    {
        "Altitude(m)": 576470.7686141285,
        "Argument of Periapsis(deg)": -0.034499561195063144,
        "Eccentricity": 0.0,
        "Inclination(deg)": 97.0,
        "Latitude(deg)": 77.21709706145108,
        "Longitude(deg)": -136.15826206388334,
        "Mean Anomaly(deg)": 79.2440292003388,
        "RAAN(deg)": 0.009077081838779597,
        "Satellite Name": "Starlink Shell 3 1588",
        "Satellite Number": 1588,
        "Semi-Major Axis(m)": 6938478.169268562,
        "Time(s)": 870
    },
    {
        "Altitude(m)": 576525.9944789669,
        "Argument of Periapsis(deg)": -0.03489610787546617,
        "Eccentricity": 0.0,
        "Inclination(deg)": 97.0,
        "Latitude(deg)": 77.73339294488773,
        "Longitude(deg)": -137.805835123541,
        "Mean Anomaly(deg)": 79.86950539804383,
        "RAAN(deg)": 0.009181416112788556,
        "Satellite Name": "Starlink Shell 3 1588",
        "Satellite Number": 1588,
        "Semi-Major Axis(m)": 6938478.169268562,
        "Time(s)": 880
    },
    {
        "Altitude(m)": 576578.0908997159,
        "Argument of Periapsis(deg)": -0.0352926545558692,
        "Eccentricity": 0.0,
        "Inclination(deg)": 97.0,
        "Latitude(deg)": 78.23951939581424,
        "Longitude(deg)": -139.5907561835173,
        "Mean Anomaly(deg)": 80.49498159574888,
        "RAAN(deg)": 0.009285750386797516,
        "Satellite Name": "Starlink Shell 3 1588",
        "Satellite Number": 1588,
        "Semi-Major Axis(m)": 6938478.169268562,
        "Time(s)": 890
    },
    {
        "Altitude(m)": 576627.0284597697,
        "Argument of Periapsis(deg)": -0.035689201236272214,
        "Eccentricity": 0.0,
        "Inclination(deg)": 97.0,
        "Latitude(deg)": 78.73411118481187,
        "Longitude(deg)": -141.52822627857685,
        "Mean Anomaly(deg)": 81.12045779345392,
        "RAAN(deg)": 0.009390084660806479,
        "Satellite Name": "Starlink Shell 3 1588",
        "Satellite Number": 1588,
        "Semi-Major Axis(m)": 6938478.169268562,
        "Time(s)": 900
    },
    {
        "Altitude(m)": 576672.7795418472,
        "Argument of Periapsis(deg)": -0.036085747916675244,
        "Eccentricity": 0.0,
        "Inclination(deg)": 97.0,
        "Latitude(deg)": 79.21558655701584,
        "Longitude(deg)": -143.63495620782408,
        "Mean Anomaly(deg)": 81.74593399115896,
        "RAAN(deg)": 0.009494418934815438,
        "Satellite Name": "Starlink Shell 3 1588",
        "Satellite Number": 1588,
        "Semi-Major Axis(m)": 6938478.169268562,
        "Time(s)": 910
    },
    {
        "Altitude(m)": 576715.3183409796,
        "Argument of Periapsis(deg)": -0.03648229459707827,
        "Eccentricity": 0.0,
        "Inclination(deg)": 97.0,
        "Latitude(deg)": 79.68211439281241,
        "Longitude(deg)": -145.92908806372176,
        "Mean Anomaly(deg)": 82.37141018886402,
        "RAAN(deg)": 0.0095987532088244,
        "Satellite Name": "Starlink Shell 3 1588",
        "Satellite Number": 1588,
        "Semi-Major Axis(m)": 6938478.169268562,
        "Time(s)": 920
    },
    {
        "Altitude(m)": 576754.6208766178,
        "Argument of Periapsis(deg)": -0.0368788412774813,
        "Eccentricity": 0.0,
        "Inclination(deg)": 97.0,
        "Latitude(deg)": 80.13157963973829,
        "Longitude(deg)": -148.429966201285,
        "Mean Anomaly(deg)": 82.99688638656906,
        "RAAN(deg)": 0.009703087482833361,
        "Satellite Name": "Starlink Shell 3 1588",
        "Satellite Number": 1588,
        "Semi-Major Axis(m)": 6938478.169268562,
        "Time(s)": 930
    },
    {
        "Altitude(m)": 576790.6650038968,
        "Argument of Periapsis(deg)": -0.037275387957884314,
        "Eccentricity": 0.0,
        "Inclination(deg)": 97.0,
        "Latitude(deg)": 80.56154932014313,
        "Longitude(deg)": -151.15768474645853,
        "Mean Anomaly(deg)": 83.6223625842741,
        "RAAN(deg)": 0.00980742175684232,
        "Satellite Name": "Starlink Shell 3 1588",
        "Satellite Number": 1588,
        "Semi-Major Axis(m)": 6938478.169268562,
        "Time(s)": 940
    }
]